LEMUR-2-GREENBERG       
1 42837U 17042N   26159.46075249  .00014878  00000+0  49735-3 0  9996
2 42837  97.3822 340.1280 0009369  44.0124 316.1861 15.31058959487053
LEMUR-2-ANDIS           
1 42838U 17042P   26159.31418661  .00018543  00000+0  55602-3 0  9993
2 42838  97.3686 340.1363 0008903  43.6827 316.5119 15.34491295487093
LEMUR-2-MONSON          
1 42839U 17042Q   26159.31970610  .00012957  00000+0  47962-3 0  9994
2 42839  97.4083 339.9733 0007026  36.5128 323.6589 15.27777072486814
LEMUR-2-FURIAUS         
1 42840U 17042R   26159.44835441  .00015692  00000+0  54249-3 0  9997
2 42840  97.3774 338.0911 0008524  95.9048 264.3165 15.29962356486874
LEMUR-2-PETERG          
1 42841U 17042S   26159.48856020  .00019468  00000+0  60182-3 0  9996
2 42841  97.3995 344.5080 0003948  29.2168 330.9294 15.33546022487100
LEMUR-2-DEMBITZ         
1 42842U 17042T   26159.46853963  .00013408  00000+0  46320-3 0  9994
2 42842  97.3828 341.1277 0007458  56.9439 303.2517 15.30030271487017
NANOACE                 
1 42844U 17042V   26159.43280225  .00010817  00000+0  44456-3 0  9997
2 42844  97.3742 333.8540 0005116  58.8892 301.2847 15.24342391486743
LEMUR-2-ZACHARY         
1 42845U 17042W   26159.02199327  .00046326  00000+0  83982-3 0  9996
2 42845  97.3614 350.4691 0003536  65.1620 294.9998 15.49476173487781
CORVUS BC2              
1 42846U 17042X   26159.42592978  .00002769  00000+0  19240-3 0  9999
2 42846  97.4061 321.1181 0014203 137.0473 223.1867 15.06240546485745
CORVUS BC1              
1 42847U 17042Y   26159.42153110  .00002771  00000+0  19174-3 0  9990
2 42847  97.4085 321.9220 0013307 115.8711 244.3891 15.06407941485776
COSMOS 2520             
1 42907U 17046A   26159.06641720  .00000152  00000+0  00000+0 0  9995
2 42907   0.0434  86.0972 0001071  50.8563 188.4329  1.00271995 32300
TDRS 13                 
1 42915U 17047A   26159.34141714 -.00000085  00000+0  00000+0 0  9990
2 42915   3.4492   2.4975 0014615 105.2088 260.4995  1.00272063 32262
QZS-3 (MICHIBIKI-3)     
1 42917U 17048A   26159.51151345 -.00000332  00000+0  00000+0 0  9998
2 42917   0.0572 182.5055 0002688 264.1762 121.3895  1.00269633 32179
FORMOSAT-5              
1 42920U 17049A   26159.50143897  .00000168  00000+0  53632-4 0  9995
2 42920  98.2253 235.0040 0012665 108.2732 251.9843 14.50895723465411
ORS-5 SENSORSAT         
1 42921U 17050A   26159.48405147  .00002926  00000+0  15966-3 0  9995
2 42921   0.0475 211.8630 0010422 291.8426 216.3651 15.00870284479737
AMAZONAS 5              
1 42934U 17053A   26159.47420932 -.00000267  00000+0  00000+0 0  9996
2 42934   0.0325 322.1491 0002497  67.5141 336.9306  1.00270467 31957
COSMOS 2522 [GLONASS-M] 
1 42939U 17055A   26158.26853041  .00000086  00000+0  00000+0 0  9998
2 42939  64.0780 192.2221 0010565 239.6527 120.3102  2.13102039 67760
ASIASAT 9               
1 42942U 17057A   26158.94017586 -.00000344  00000+0  00000+0 0  9993
2 42942   0.0114  80.9491 0002481 346.4825 289.4719  1.00270474 31769
YAOGAN-30 02A           
1 42945U 17058A   26159.50232146  .00003102  00000+0  22761-3 0  9997
2 42945  34.9972  82.2297 0001124  59.2703 300.8116 15.03064378474588
YAOGAN-30 02B           
1 42946U 17058B   26159.49773458  .00002933  00000+0  21694-3 0  9997
2 42946  34.9974  83.1178 0003075 248.8601 111.1778 15.02776306474553
YAOGAN-30 02C           
1 42947U 17058C   26159.44190177  .00003227  00000+0  22801-3 0  9992
2 42947  34.9972  74.1376 0003932 140.5266 219.5729 15.04465499474503
INTELSAT 37E (IS-37E)   
1 42950U 17059A   26159.34011713  .00000000  00000+0  00000+0 0  9993
2 42950   0.0183 348.6209 0002362 112.5477 260.0060  1.00268359 31974
BSAT-4A                 
1 42951U 17059B   26159.36549410 -.00000334  00000+0  00000+0 0  9997
2 42951   0.0356   4.6479 0004270  59.0126  74.5011  1.00272599 31718
VRSS-2                  
1 42954U 17060A   26159.54008039  .00001313  00000+0  17475-3 0  9994
2 42954  97.6516 197.6565 0018253 124.7920 235.5014 14.81181971467179
IRIDIUM 133             
1 42955U 17061A   26159.38025830  .00000152  00000+0  47062-4 0  9992
2 42955  86.3979  28.9502 0002130  85.2796 274.8643 14.34217010453513
IRIDIUM 100             
1 42956U 17061B   26159.37391943  .00000043  00000+0  84214-5 0  9993
2 42956  86.3975  28.8716 0002161  86.4823 273.6620 14.34217991453514
IRIDIUM 122             
1 42957U 17061C   26159.13290154  .00000018  00000+0 -66680-6 0  9991
2 42957  86.3975  28.9728 0002213  84.6979 275.4469 14.34217749453487
IRIDIUM 129             
1 42958U 17061D   26159.36757777  .00000102  00000+0  29307-4 0  9992
2 42958  86.3977  28.9414 0002420  88.2526 271.8947 14.34217783453535
IRIDIUM 119             
1 42959U 17061E   26159.12655944  .00000037  00000+0  62655-5 0  9991
2 42959  86.3978  29.0381 0002263  84.5701 275.5753 14.34217634453510
IRIDIUM 107             
1 42960U 17061F   26159.14558586  .00000121  00000+0  36036-4 0  9996
2 42960  86.3979  29.0512 0002066  80.5372 279.6057 14.34217978453524
IRIDIUM 132             
1 42961U 17061G   26159.36123435  .00000073  00000+0  19050-4 0  9995
2 42961  86.3978  28.9405 0002239  85.8232 274.3220 14.34218181453552
