OBJECT_NAME,OBJECT_ID,EPOCH,MEAN_MOTION,ECCENTRICITY,INCLINATION,RA_OF_ASC_NODE,ARG_OF_PERICENTER,MEAN_ANOMALY,EPHEMERIS_TYPE,CLASSIFICATION_TYPE,NORAD_CAT_ID,ELEMENT_SET_NO,REV_AT_EPOCH,BSTAR,MEAN_MOTION_DOT,MEAN_MOTION_DDOT
LEMUR-2-GREENBERG,2017-042N,2026-06-08T11:03:29.015136,15.31058959,.0009369,97.3822,340.1280,44.0124,316.1861,0,U,42837,999,48705,.49735E-3,.14878E-3,0
LEMUR-2-ANDIS,2017-042P,2026-06-08T07:32:25.723104,15.34491295,.0008903,97.3686,340.1363,43.6827,316.5119,0,U,42838,999,48709,.55602E-3,.18543E-3,0
LEMUR-2-MONSON,2017-042Q,2026-06-08T07:40:22.607040,15.27777072,.0007026,97.4083,339.9733,36.5128,323.6589,0,U,42839,999,48681,.47962E-3,.12957E-3,0
LEMUR-2-FURIAUS,2017-042R,2026-06-08T10:45:37.821024,15.29962356,.0008524,97.3774,338.0911,95.9048,264.3165,0,U,42840,999,48687,.54249E-3,.15692E-3,0
LEMUR-2-PETERG,2017-042S,2026-06-08T11:43:31.601280,15.33546022,.0003948,97.3995,344.5080,29.2168,330.9294,0,U,42841,999,48710,.60182E-3,.19468E-3,0
LEMUR-2-DEMBITZ,2017-042T,2026-06-08T11:14:41.824032,15.30030271,.0007458,97.3828,341.1277,56.9439,303.2517,0,U,42842,999,48701,.4632E-3,.13408E-3,0
NANOACE,2017-042V,2026-06-08T10:23:14.114400,15.24342391,.0005116,97.3742,333.8540,58.8892,301.2847,0,U,42844,999,48674,.44456E-3,.10817E-3,0
LEMUR-2-ZACHARY,2017-042W,2026-06-08T00:31:40.218528,15.49476173,.0003536,97.3614,350.4691,65.1620,294.9998,0,U,42845,999,48778,.83981904E-3,.46326E-3,0
CORVUS BC2,2017-042X,2026-06-08T10:13:20.332992,15.06240546,.0014203,97.4061,321.1181,137.0473,223.1867,0,U,42846,999,48574,.1924E-3,.2769E-4,0
CORVUS BC1,2017-042Y,2026-06-08T10:07:00.287040,15.06407941,.0013307,97.4085,321.9220,115.8711,244.3891,0,U,42847,999,48577,.19174E-3,.2771E-4,0
COSMOS 2520,2017-046A,2026-06-08T01:35:38.446080,1.00271995,.0001071,0.0434,86.0972,50.8563,188.4329,0,U,42907,999,3230,0,.152E-5,0
TDRS 13,2017-047A,2026-06-08T08:11:38.440896,1.00272063,.0014615,3.4492,2.4975,105.2088,260.4995,0,U,42915,999,3226,0,-.85E-6,0
QZS-3 (MICHIBIKI-3),2017-048A,2026-06-08T12:16:34.762080,1.00269633,.0002688,0.0572,182.5055,264.1762,121.3895,0,U,42917,999,3217,0,-.332E-5,0
FORMOSAT-5,2017-049A,2026-06-08T12:02:04.327008,14.50895723,.0012665,98.2253,235.0040,108.2732,251.9843,0,U,42920,999,46541,.53632E-4,.168E-5,0
ORS-5 SENSORSAT,2017-050A,2026-06-08T11:37:02.047008,15.00870284,.0010422,0.0475,211.8630,291.8426,216.3651,0,U,42921,999,47973,.15966E-3,.2926E-4,0
AMAZONAS 5,2017-053A,2026-06-08T11:22:51.685248,1.00270467,.0002497,0.0325,322.1491,67.5141,336.9306,0,U,42934,999,3195,0,-.267E-5,0
COSMOS 2522 [GLONASS-M],2017-055A,2026-06-07T06:26:41.027424,2.13102039,.00105657,64.0780,192.2221,239.6527,120.3102,0,U,42939,999,6776,0,.86E-6,0
ASIASAT 9,2017-057A,2026-06-07T22:33:51.194304,1.00270474,.00024816,0.0114,80.9491,346.4825,289.4719,0,U,42942,999,3176,0,-.344E-5,0
YAOGAN-30 02A,2017-058A,2026-06-08T12:03:20.574144,15.03064378,.0001124,34.9972,82.2297,59.2703,300.8116,0,U,42945,999,47458,.22761E-3,.3102E-4,0
YAOGAN-30 02B,2017-058B,2026-06-08T11:56:44.267712,15.02776306,.0003075,34.9974,83.1178,248.8601,111.1778,0,U,42946,999,47455,.21694E-3,.2933E-4,0
YAOGAN-30 02C,2017-058C,2026-06-08T10:36:20.312928,15.04465499,.0003932,34.9972,74.1376,140.5266,219.5729,0,U,42947,999,47450,.22801E-3,.3227E-4,0
INTELSAT 37E (IS-37E),2017-059A,2026-06-08T08:09:46.120032,1.00268359,.0002362,0.0183,348.6209,112.5477,260.0060,0,U,42950,999,3197,0,0,0
BSAT-4A,2017-059B,2026-06-08T08:46:18.690240,1.00272599,.000427,0.0356,4.6479,59.0126,74.5011,0,U,42951,999,3171,0,-.334E-5,0
VRSS-2,2017-060A,2026-06-08T12:57:42.945696,14.81181971,.0018253,97.6516,197.6565,124.7920,235.5014,0,U,42954,999,46717,.17475E-3,.1313E-4,0
IRIDIUM 133,2017-061A,2026-06-08T09:07:34.317120,14.34217010,.000213,86.3979,28.9502,85.2796,274.8643,0,U,42955,999,45351,.47062E-4,.152E-5,0
IRIDIUM 100,2017-061B,2026-06-08T08:58:26.638752,14.34217991,.0002161,86.3975,28.8716,86.4823,273.6620,0,U,42956,999,45351,.84214E-5,.43E-6,0
IRIDIUM 122,2017-061C,2026-06-08T03:11:22.693056,14.34217749,.00022131,86.3975,28.9728,84.6979,275.4469,0,U,42957,999,45348,-.666796E-6,.18E-6,0
IRIDIUM 129,2017-061D,2026-06-08T08:49:18.719328,14.34217783,.000242,86.3977,28.9414,88.2526,271.8947,0,U,42958,999,45353,.29307E-4,.102E-5,0
IRIDIUM 119,2017-061E,2026-06-08T03:02:14.735616,14.34217634,.00022636,86.3978,29.0381,84.5701,275.5753,0,U,42959,999,45351,.6265501E-5,.37E-6,0
IRIDIUM 107,2017-061F,2026-06-08T03:29:38.618304,14.34217978,.00020664,86.3979,29.0512,80.5372,279.6057,0,U,42960,999,45352,.36036274E-4,.121E-5,0
IRIDIUM 132,2017-061G,2026-06-08T08:40:10.647840,14.34218181,.0002239,86.3978,28.9405,85.8232,274.3220,0,U,42961,999,45355,.1905E-4,.73E-6,0
